NORAD_CAT_ID,OBJECT_NAME,OBJECT_TYPE,EPOCH,MEAN_MOTION,ECCENTRICITY,INCLINATION,RA_OF_ASC_NODE,ARG_OF_PERICENTER,MEAN_ANOMALY,BSTAR,MEAN_MOTION_DOT,MEAN_MOTION_DDOT,TLE_LINE0,TLE_LINE1,TLE_LINE2,SEMIMAJOR_AXIS,PERIOD,APOGEE,PERIGEE,DECAYED
52658.0,STARLINK-4082,PAYLOAD,2024-06-15 13:34:53,15.08850554,0.0001295,53.2157,111.8346,85.7355,274.3785,0.00021198,3.088e-05,0.0,0 STARLINK-4082,1 52658U 22053C   24167.56589760  .00003088  00000-0  21198-3 0  9997,2 52658  53.2157 111.8346 0001295  85.7355 274.3785 15.08850554115807,6917.848,95.437,540.609,538.817,0.0
52658.0,STARLINK-4082,PAYLOAD,2024-06-16 13:25:41,15.08845758,0.00014,53.215,107.3741,87.6804,272.4348,0.00024806,3.663e-05,0.0,0 STARLINK-4082,1 52658U 22053C   24168.55950354  .00003663  00000-0  24806-3 0  9996,2 52658  53.2150 107.3741 0001400  87.6804 272.4348 15.08845758115957,6917.863,95.437,540.696,538.759,0.0
52658.0,STARLINK-4082,PAYLOAD,2024-06-17 22:48:47,15.08835557,0.0001627,53.2191,101.1292,93.3637,266.7542,9.3063e-05,1.193e-05,0.0,0 STARLINK-4082,1 52658U 22053C   24169.95055127  .00001193  00000-0  93063-4 0  9993,2 52658  53.2191 101.1292 0001627  93.3637 266.7542 15.08835557116166,6917.894,95.438,540.885,538.633,0.0
52658.0,STARLINK-4082,PAYLOAD,2024-06-18 01:59:33,15.08836758,0.000157,53.2192,100.5352,95.8748,264.2423,2.9259e-05,1.78e-06,0.0,0 STARLINK-4082,1 52658U 22053C   24170.08303202  .00000178  00000-0  29259-4 0  9997,2 52658  53.2192 100.5352 0001570  95.8748 264.2423 15.08836758116181,6917.89,95.438,540.841,538.669,0.0
52658.0,STARLINK-4082,PAYLOAD,2024-06-18 05:10:20,15.08839835,0.0001608,53.2196,99.939,100.2079,259.9095,2.6156e-05,1.28e-06,0.0,0 STARLINK-4082,1 52658U 22053C   24170.21550968  .00000128  00000-0  26156-4 0  9993,2 52658  53.2196  99.9390 0001608 100.2079 259.9095 15.08839835116206,6917.881,95.438,540.858,538.633,0.0
52658.0,STARLINK-4082,PAYLOAD,2024-06-19 01:50:20,15.0884068,0.0001629,53.2189,96.0736,99.505,260.6126,0.00017725,2.534e-05,0.0,0 STARLINK-4082,1 52658U 22053C   24171.07662479  .00002534  00000-0  17725-3 0  9993,2 52658  53.2189  96.0736 0001629  99.5050 260.6126 15.08840680116330,6917.878,95.438,540.87,538.616,0.0
52658.0,STARLINK-4082,PAYLOAD,2024-06-19 19:19:35,15.08836712,0.0001424,53.218,92.8022,97.4915,262.6239,0.00013276,1.825e-05,0.0,0 STARLINK-4082,1 52658U 22053C   24171.80526845  .00001825  00000-0  13276-3 0  9999,2 52658  53.2180  92.8022 0001424  97.4915 262.6239 15.08836712116443,6917.89,95.438,540.741,538.77,0.0
52658.0,STARLINK-4082,PAYLOAD,2024-06-19 22:30:21,15.08833763,0.0001408,53.218,92.2074,97.2455,262.8697,0.00010475,1.379e-05,0.0,0 STARLINK-4082,1 52658U 22053C   24171.93775122  .00001379  00000-0  10475-3 0  9999,2 52658  53.2180  92.2074 0001408  97.2455 262.8697 15.08833763116468,6917.899,95.438,540.738,538.79,0.0
52658.0,STARLINK-4082,PAYLOAD,2024-06-20 11:13:26,15.08846979,0.0001244,53.2179,89.8307,93.0639,267.0495,0.00011264,1.506e-05,0.0,0 STARLINK-4082,1 52658U 22053C   24172.46766310  .00001506  00000-0  11264-3 0  9996,2 52658  53.2179  89.8307 0001244  93.0639 267.0495 15.08846979116548,6917.859,95.437,540.585,538.863,0.0
52658.0,STARLINK-4082,PAYLOAD,2024-06-20 22:21:09,15.08828196,0.0001199,53.2176,87.7474,85.5468,274.5661,-5.5773e-05,-1.175e-05,0.0,0 STARLINK-4082,1 52658U 22053C   24172.93136054 -.00001175  00000-0 -55773-4 0  9992,2 52658  53.2176  87.7474 0001199  85.5468 274.5661 15.08828196116619,6917.916,95.438,540.611,538.952,0.0
52658.0,STARLINK-4082,PAYLOAD,2024-06-20 23:56:32,15.0883014,0.0001251,53.2179,87.4512,91.1728,268.9408,-4.1449e-05,-9.47e-06,0.0,0 STARLINK-4082,1 52658U 22053C   24172.99759914 -.00000947  00000-0 -41449-4 0  9995,2 52658  53.2179  87.4512 0001251  91.1728 268.9408 15.08830140116622,6917.911,95.438,540.641,538.91,0.0
52658.0,STARLINK-4082,PAYLOAD,2024-06-21 04:42:41,15.08836348,0.0001257,53.2181,86.5598,97.7274,262.3861,1.1961e-05,-9.8e-07,0.0,0 STARLINK-4082,1 52658U 22053C   24173.19631418 -.00000098  00000-0  11961-4 0  9998,2 52658  53.2181  86.5598 0001257  97.7274 262.3861 15.08836348116653,6917.892,95.438,540.626,538.887,0.0
52658.0,STARLINK-4082,PAYLOAD,2024-06-21 12:39:36,15.08841649,0.0001305,53.2183,85.0741,103.841,256.2728,6.6219e-05,7.66e-06,0.0,0 STARLINK-4082,1 52658U 22053C   24173.52750997  .00000766  00000-0  66219-4 0  9996,2 52658  53.2183  85.0741 0001305 103.8410 256.2728 15.08841649116704,6917.875,95.437,540.643,538.838,0.0
52658.0,STARLINK-4082,PAYLOAD,2024-06-21 22:11:56,15.08829367,0.0001094,53.2167,83.2874,92.4747,267.6371,3.1408e-05,2.12e-06,0.0,0 STARLINK-4082,1 52658U 22053C   24173.92496071  .00000212  00000-0  31408-4 0  9998,2 52658  53.2167  83.2874 0001094  92.4747 267.6371 15.08829367116763,6917.913,95.438,540.535,539.021,0.0
52658.0,STARLINK-4082,PAYLOAD,2024-06-22 04:33:28,15.08836465,0.0001163,53.217,82.0979,100.4628,259.6495,7.1661e-05,8.53e-06,0.0,0 STARLINK-4082,1 52658U 22053C   24174.18991577  .00000853  00000-0  71661-4 0  9994,2 52658  53.2170  82.0979 0001163 100.4628 259.6495 15.08836465116805,6917.891,95.438,540.561,538.952,0.0
52658.0,STARLINK-4082,PAYLOAD,2024-06-22 22:02:43,15.08836662,0.0001326,53.2177,78.829,108.9694,251.1442,0.00019414,2.803e-05,0.0,0 STARLINK-4082,1 52658U 22053C   24174.91855472  .00002803  00000-0  19414-3 0  9992,2 52658  53.2177  78.8290 0001326 108.9694 251.1442 15.08836662116918,6917.891,95.438,540.673,538.838,0.0
52658.0,STARLINK-4082,PAYLOAD,2024-06-23 02:48:52,15.0884297,0.0001116,53.2166,77.9342,100.7509,259.3609,0.00017962,2.572e-05,0.0,0 STARLINK-4082,1 52658U 22053C   24175.11727213  .00002572  00000-0  17962-3 0  9995,2 52658  53.2166  77.9342 0001116 100.7509 259.3609 15.08842970116943,6917.871,95.437,540.508,538.964,0.0
52658.0,STARLINK-4082,PAYLOAD,2024-06-23 21:53:29,15.08842277,0.0001159,53.2166,74.3658,106.5852,253.5268,0.00018114,2.596e-05,0.0,0 STARLINK-4082,1 52658U 22053C   24175.91215219  .00002596  00000-0  18114-3 0  9997,2 52658  53.2166  74.3658 0001159 106.5852 253.5268 15.08842277117067,6917.873,95.437,540.54,538.937,0.0
52658.0,STARLINK-4082,PAYLOAD,2024-06-24 02:39:39,15.08849489,0.0001237,53.2169,73.4742,96.2225,263.8908,0.00019194,2.769e-05,0.0,0 STARLINK-4082,1 52658U 22053C   24176.11086976  .00002769  00000-0  19194-3 0  9997,2 52658  53.2169  73.4742 0001237  96.2225 263.8908 15.08849489117090,6917.851,95.437,540.572,538.861,0.0
52658.0,STARLINK-4082,PAYLOAD,2024-06-24 21:44:17,15.08840187,0.0001398,53.2178,69.9018,101.3903,258.7246,1.7531e-05,-9e-08,0.0,0 STARLINK-4082,1 52658U 22053C   24176.90575363 -.00000009  00000-0  17531-4 0  9997,2 52658  53.2178  69.9018 0001398 101.3903 258.7246 15.08840187117213,6917.88,95.438,540.712,538.778,0.0
52658.0,STARLINK-4082,PAYLOAD,2024-06-24 23:19:40,15.0883994,0.0001396,53.2178,69.6044,101.1149,259.0,1.1339e-05,-1.07e-06,0.0,0 STARLINK-4082,1 52658U 22053C   24176.97199368 -.00000107  00000-0  11339-4 0  9990,2 52658  53.2178  69.6044 0001396 101.1149 259.0000 15.08839940117225,6917.881,95.438,540.711,538.78,0.0
52658.0,STARLINK-4082,PAYLOAD,2024-06-25 21:35:03,15.08844233,0.0001396,53.2189,65.4393,90.3794,269.7358,6.5746e-05,7.59e-06,0.0,0 STARLINK-4082,1 52658U 22053C   24177.89935063  .00000759  00000-0  65746-4 0  9995,2 52658  53.2189  65.4393 0001396  90.3794 269.7358 15.08844233117363,6917.867,95.437,540.698,538.767,0.0
52658.0,STARLINK-4082,PAYLOAD,2024-06-25 23:10:26,15.08845124,0.0001395,53.2187,65.1422,89.4382,270.677,7.0339e-05,8.32e-06,0.0,0 STARLINK-4082,1 52658U 22053C   24177.96558975  .00000832  00000-0  70339-4 0  9992,2 52658  53.2187  65.1422 0001395  89.4382 270.6770 15.08845124117372,6917.865,95.437,540.695,538.765,0.0
52658.0,STARLINK-4082,PAYLOAD,2024-06-26 23:01:14,15.088384,0.0001472,53.2186,60.6909,69.1544,290.9606,7.3899e-05,8.88e-06,0.0,0 STARLINK-4082,1 52658U 22053C   24178.95919701  .00000888  00000-0  73899-4 0  9995,2 52658  53.2186  60.6909 0001472  69.1544 290.9606 15.08838400117521,6917.885,95.438,540.769,538.732,0.0
52658.0,STARLINK-4082,PAYLOAD,2024-06-27 08:33:32,15.08845142,0.0001314,53.2183,58.9056,85.1824,274.9318,0.00013318,1.833e-05,0.0,0 STARLINK-4082,1 52658U 22053C   24179.35663154  .00001833  00000-0  13318-3 0  9998,2 52658  53.2183  58.9056 0001314  85.1824 274.9318 15.08845142117584,6917.865,95.437,540.639,538.821,0.0
52658.0,STARLINK-4082,PAYLOAD,2024-06-27 19:41:15,15.08826874,0.0001144,53.217,56.8225,80.2716,279.8405,-0.00018586,-3.243e-05,0.0,0 STARLINK-4082,1 52658U 22053C   24179.82032179 -.00003243  00000-0 -18586-3 0  9998,2 52658  53.2170  56.8225 0001144  80.2716 279.8405 15.08826874117652,6917.921,95.438,540.577,538.994,0.0
52658.0,STARLINK-4082,PAYLOAD,2024-06-27 22:52:01,15.08832392,0.0001275,53.2166,56.2325,98.7704,261.3432,-0.0001167,-2.144e-05,0.0,0 STARLINK-4082,1 52658U 22053C   24179.95279974 -.00002144  00000-0 -11670-3 0  9994,2 52658  53.2166  56.2325 0001275  98.7704 261.3432 15.08832392117678,6917.904,95.438,540.651,538.887,0.0
52658.0,STARLINK-4082,PAYLOAD,2024-06-28 08:24:20,15.08847937,0.0001273,53.2174,54.4422,80.4057,279.7079,0.00014281,1.986e-05,0.0,0 STARLINK-4082,1 52658U 22053C   24180.35023224  .00001986  00000-0  14281-3 0  9997,2 52658  53.2174  54.4422 0001273  80.4057 279.7079 15.08847937117730,6917.856,95.437,540.602,538.84,0.0
52658.0,STARLINK-4082,PAYLOAD,2024-06-28 21:07:25,15.08844054,0.0001493,53.2181,52.0643,89.9807,270.1356,0.00014641,2.043e-05,0.0,0 STARLINK-4082,1 52658U 22053C   24180.88015647  .00002043  00000-0  14641-3 0  9990,2 52658  53.2181  52.0643 0001493  89.9807 270.1356 15.08844054117817,6917.868,95.437,540.766,538.7,0.0
52658.0,STARLINK-4082,PAYLOAD,2024-06-28 22:42:48,15.08849346,0.0001143,53.2171,51.767,66.5282,293.583,0.00016875,2.4e-05,0.0,0 STARLINK-4082,1 52658U 22053C   24180.94639388  .00002400  00000-0  16875-3 0  9999,2 52658  53.2171  51.7670 0001143  66.5282 293.5830 15.08849346117828,6917.852,95.437,540.508,538.926,0.0
